[ {"name": "STARLINK-2542", "line1": "1 48292U 21036S   26136.14844294  .00000649  00000+0  32671-4 0  9992", "line2": "2 48292  53.1595 121.5400 0001249 114.2349 245.8783 15.31698388278745"}, {"name": "STARLINK-2550", "line1": "1 48293U 21036T   26136.22769028  .00002370  00000+0  88095-4 0  9997", "line2": "2 48293  53.1598 121.3297 0001339  85.2619 274.8535 15.31701484278758"}, {"name": "STARLINK-2533", "line1": "1 48294U 21036U   26136.21836041  .00001052  00000+0  45657-4 0  9990", "line2": "2 48294  53.1599 121.3216 0001221  82.1897 277.9243 15.31708232278753"}, {"name": "STARLINK-2535", "line1": "1 48295U 21036V   26136.23237168  .00001432  00000+0  57886-4 0  9997", "line2": "2 48295  53.1609 121.4271 0001280  87.3821 272.7327 15.31711262278750"}, {"name": "STARLINK-2559", "line1": "1 48298U 21036Y   26136.20332514  .00032954  00000+0  10375-2 0  9991", "line2": "2 48298  53.1578 121.3745 0001729  74.2808 285.8384 15.32658280278750"}, {"name": "STARLINK-2557", "line1": "1 48299U 21036Z   26136.19972347  .00000924  00000+0  41543-4 0  9999", "line2": "2 48299  53.1597 121.3904 0001333  87.1709 272.9445 15.31707822278754"}, {"name": "STARLINK-2538", "line1": "1 48300U 21036AA  26136.27735339  .00002097  00000+0  79289-4 0  9990", "line2": "2 48300  53.1585 133.8511 0000712  74.9837 285.1243 15.31713719278587"}, {"name": "STARLINK-2537", "line1": "1 48301U 21036AB  26136.24513791 -.00001732  00000+0 -44059-4 0  9998", "line2": "2 48301  53.1602 137.0076 0001767  77.0866 283.0332 15.31698618278527"}, {"name": "STARLINK-2530", "line1": "1 48303U 21036AD  26135.66668981 -.00025873  00000+0 -82464-3 0  9990", "line2": "2 48303  53.1571 136.9827 0001355  90.8736  62.6634 15.31707898  5837"}, {"name": "STARLINK-2524", "line1": "1 48304U 21036AE  26136.22389708  .00004325  00000+0  15105-3 0  9996", "line2": "2 48304  53.1596 144.8425 0001194  71.5132 288.5999 15.31702616278405"}, {"name": "STARLINK-2519", "line1": "1 48305U 21036AF  26136.20935343  .00016089  00000+0  56657-3 0  9994", "line2": "2 48305  53.1505 145.4846 0002026  64.7899 295.3311 15.29477220278398"}, {"name": "STARLINK-2523", "line1": "1 48306U 21036AG  26136.33335648  .00015196  00000+0  50069-3 0  9990", "line2": "2 48306  53.1592 144.4520 0001280  64.8178 153.4485 15.31684188  5711"}, {"name": "STARLINK-2517", "line1": "1 48309U 21036AK  26136.21510940 -.00000176  00000+0  61960-5 0  9997", "line2": "2 48309  53.1584 134.5009 0001312 100.6753 259.4395 15.30198460278565"}, {"name": "STARLINK-2536", "line1": "1 48310U 21036AL  26136.23650815 -.00001091  00000+0 -23390-4 0  9999", "line2": "2 48310  53.1575 137.2991 0001618 125.9002 234.2150 15.31703011278524"}, {"name": "STARLINK-2534", "line1": "1 48311U 21036AM  26136.28674527  .00001287  00000+0  53219-4 0  9999", "line2": "2 48311  53.1601 134.3100 0001197  95.6968 264.4170 15.31709604278577"}, {"name": "STARLINK-2061", "line1": "1 48312U 21036AN  26136.25875613  .00007881  00000+0  26527-3 0  9993", "line2": "2 48312  53.1578 134.1910 0001304  80.6656 279.4492 15.31722189278572"}, {"name": "STARLINK-2549", "line1": "1 48314U 21036AQ  26136.30102582  .00000983  00000+0  43420-4 0  9997", "line2": "2 48314  53.1604 136.4654 0001192  84.1039 276.0098 15.31710811278533"}, {"name": "STARLINK-2506", "line1": "1 48315U 21036AR  26136.31653132  .00064932  00000+0  22095-2 0  9998", "line2": "2 48315  53.1491 144.4313 0000521  62.1034 298.0020 15.29843195278410"}, {"name": "STARLINK-2507", "line1": "1 48316U 21036AS  26136.31074119  .00000901  00000+0  43561-4 0  9990", "line2": "2 48316  53.1504 144.4360 0001057  71.3313 288.7802 15.29359968278419"}, {"name": "STARLINK-2513", "line1": "1 48317U 21036AT  26136.21676889  .00001167  00000+0  49363-4 0  9993", "line2": "2 48317  53.1598 134.1510 0001206  95.6604 264.4535 15.31710666278563"}, {"name": "STARLINK-2509", "line1": "1 48318U 21036AU  26136.31315357  .00001801  00000+0  69747-4 0  9998", "line2": "2 48318  53.1579 147.3872 0001094  83.4713 276.6413 15.31714463278380"}, {"name": "STARLINK-2512", "line1": "1 48319U 21036AV  26136.23849319  .00004381  00000+0  15280-3 0  9998", "line2": "2 48319  53.1590 147.0101 0001164  96.3945 263.7189 15.31714125278386"}, {"name": "STARLINK-2029", "line1": "1 48320U 21036AW  26136.20159072  .00000800  00000+0  37534-4 0  9996", "line2": "2 48320  53.1588 147.4849 0001146  69.4064 290.7061 15.31703140278374"}, {"name": "STARLINK-2457", "line1": "1 48321U 21036AX  26136.22450087  .00004965  00000+0  17161-3 0  9998", "line2": "2 48321  53.1594 147.0040 0001319  91.2096 268.9057 15.31705465278386"}, {"name": "STARLINK-2515", "line1": "1 48323U 21036AZ  26136.21517566  .00001444  00000+0  58264-4 0  9994", "line2": "2 48323  53.1571 147.0168 0001044 102.1235 257.9883 15.31704885278386"}, {"name": "STARLINK-2495", "line1": "1 48325U 21036BB  26136.21985165  .00000941  00000+0  42092-4 0  9993", "line2": "2 48325  53.1598 147.1283 0001058 100.5470 259.5650 15.31702901278381"}, {"name": "STARLINK-2498", "line1": "1 48326U 21036BC  26136.21086371  .00015904  00000+0  52295-3 0  9995", "line2": "2 48326  53.1589 147.1002 0001208  75.4933 284.6202 15.31713097278382"}, {"name": "STARLINK-2502", "line1": "1 48327U 21036BD  26136.20620770  .00000781  00000+0  36928-4 0  9995", "line2": "2 48327  53.1603 147.1241 0001125  94.5205 265.5925 15.31700326278388"}, {"name": "STARLINK-2504", "line1": "1 48328U 21036BE  26136.32236319  .00001126  00000+0  48019-4 0  9999", "line2": "2 48328  53.1595 146.4652 0001052  89.9916 270.1206 15.31712427278393"}, {"name": "STARLINK-2510", "line1": "1 48329U 21036BF  26136.31805255  .00003012  00000+0  10873-3 0  9992", "line2": "2 48329  53.1591 146.4769 0001189  80.5385 279.5751 15.31714886278408"}, {"name": "STARLINK-2501", "line1": "1 48330U 21036BG  26136.22094482 -.00002801  00000+0 -82483-4 0  9990", "line2": "2 48330  53.1597 147.3349 0001261 119.1016 241.0111 15.30195725278386"}, {"name": "STARLINK-2514", "line1": "1 48331U 21036BH  26136.21677313  .00038403  00000+0  12864-2 0  9999", "line2": "2 48331  53.1594 147.3451 0001639  71.1818 288.9360 15.30591684278384"}, {"name": "STARLINK-2518", "line1": "1 48333U 21036BK  26136.30872577  .00001176  00000+0  49651-4 0  9993", "line2": "2 48333  53.1588 146.5769 0001185  86.1537 273.9599 15.31708787278408"}, {"name": "STARLINK-2470", "line1": "1 48334U 21036BL  26136.23880989  .00001516  00000+0  60587-4 0  9991", "line2": "2 48334  53.1593 146.8901 0001304  79.1743 280.9406 15.31715259278395"}, {"name": "STARLINK-2613", "line1": "1 48353U 21038A   26136.21327320  .00002433  00000+0  90129-4 0  9991", "line2": "2 48353  53.1618  44.1162 0001240  98.0410 262.0732 15.31707244277424"}, {"name": "STARLINK-2674", "line1": "1 48354U 21038B   26136.02219830  .00000640  00000+0  32370-4 0  9999", "line2": "2 48354  53.1617  45.0916 0001143  83.5545 276.5587 15.31704799277397"}, {"name": "STARLINK-2635", "line1": "1 48355U 21038C   26136.00819950  .00000946  00000+0  42255-4 0  9999", "line2": "2 48355  53.1610  45.0550 0001147  69.0555 291.0570 15.31702894277397"}, {"name": "STARLINK-2637", "line1": "1 48356U 21038D   26136.22728895  .00002051  00000+0  77831-4 0  9998", "line2": "2 48356  53.1622  44.3241 0001204  84.6379 275.4760 15.31704188277420"}, {"name": "STARLINK-2636", "line1": "1 48357U 21038E   26136.19929615  .00001061  00000+0  45955-4 0  9990", "line2": "2 48357  53.1611  44.2165 0001214  97.5577 262.5562 15.31697310277422"}, {"name": "STARLINK-2624", "line1": "1 48358U 21038F   26136.12938124  .00000555  00000+0  29653-4 0  9993", "line2": "2 48358  53.1604  44.5065 0001244  91.3040 268.8104 15.31696919277400"}, {"name": "STARLINK-2628", "line1": "1 48359U 21038G   26136.02690217  .00006286  00000+0  21405-3 0  9994", "line2": "2 48359  53.1612  45.3229 0001215  87.4469 272.6672 15.31713804277383"}, {"name": "STARLINK-2622", "line1": "1 48360U 21038H   26136.12472463  .00000125  00000+0  15797-4 0  9992", "line2": "2 48360  53.1619  44.5496 0001352  94.8132 265.3024 15.31699843277409"}, {"name": "STARLINK-2591", "line1": "1 48361U 21038J   26136.12007207  .00002288  00000+0  85455-4 0  9993", "line2": "2 48361  53.1609  44.5659 0001305 104.3837 255.7310 15.31704623277401"}, {"name": "STARLINK-2578", "line1": "1 48362U 21038K   26136.01285996  .00000503  00000+0  27982-4 0  9994", "line2": "2 48362  53.1616  45.0566 0001123  98.0011 262.1118 15.31703552277390"}, {"name": "STARLINK-2611", "line1": "1 48364U 21038M   26136.01478243  .00006360  00000+0  21634-3 0  9999", "line2": "2 48364  53.1621  34.7081 0001696  61.5796 298.5376 15.31731386277547"}, {"name": "STARLINK-2608", "line1": "1 48365U 21038N   26136.00082331  .00001138  00000+0  48432-4 0  9992", "line2": "2 48365  53.1613  34.8352 0001407  90.6916 269.4247 15.31705065277547"}, {"name": "STARLINK-2643", "line1": "1 48367U 21038Q   26134.21542217 -.00001367  00000+0 -32281-4 0  9990", "line2": "2 48367  53.1615  40.6845 0001249 103.2183 256.8958 15.31704401277298"}, {"name": "STARLINK-2623", "line1": "1 48368U 21038R   26136.00471626  .00001875  00000+0  75415-4 0  9993", "line2": "2 48368  53.1604  35.1133 0001119  85.3181 274.7948 15.30195993277534"}, {"name": "STARLINK-2621", "line1": "1 48370U 21038T   26136.01013046  .00000864  00000+0  39613-4 0  9992", "line2": "2 48370  53.1612  34.6888 0001104  82.8600 277.2527 15.31703286277531"}, {"name": "STARLINK-2589", "line1": "1 48371U 21038U   26135.04071466  .00001828  00000+0  70652-4 0  9994", "line2": "2 48371  53.1645  39.3313 0002394  52.5607 307.5612 15.31715292277381"}, {"name": "STARLINK-2609", "line1": "1 48373U 21038W   26136.03312807  .00001772  00000+0  68841-4 0  9998", "line2": "2 48373  53.1623  32.3111 0001181  92.8751 267.2385 15.31703147277574"}, {"name": "STARLINK-2604", "line1": "1 48374U 21038X   26136.12655582 -.00100515  00000+0 -32559-2 0  9991", "line2": "2 48374  53.1612  34.1731 0000734 195.1034 164.9946 15.31848028277557"}]